{"epoch":1784710044,"count":18256,"objects":[{"id":"38012","name":"PLEIADES 1","type":"PAYLOAD","l1":"1 38012U 11076F   26202.65091175  .00000365  00000-0  88432-4 0  9998","l2":"2 38012  98.1960 277.2886 0001596  78.0079  80.2641 14.58549688777012"},{"id":"39019","name":"PLEIADES 1B","type":"PAYLOAD","l1":"1 39019U 12068A   26202.58619773  .00000306  00000-0  75783-4 0  9990","l2":"2 39019  98.1931 277.1619 0001492  78.6878 281.4489 14.58536997725869"}]}